{"fetched_at":"2026-03-29T16:36:15Z","count":15609,"tles":[{"name":"STARLINK-5706","line1":"1 55488U 23015AR  26087.70394343  .00000385  00000+0  24030-4 0  9995","line2":"2 55488  43.0017 232.3046 0001320 269.5676  90.5024 15.26739724173506","category":"Starlink"}]}